[
  {
    "OBJECT_NAME": "ZACUBE-1 (TSHEPISOSAT)",
    "OBJECT_ID": "2013-066B",
    "EPOCH": "2025-06-14T09:35:51.143136",
    "MEAN_MOTION": 14.96693756,
    "ECCENTRICITY": 0.0045024,
    "INCLINATION": 97.7802,
    "RA_OF_ASC_NODE": 122.3871,
    "ARG_OF_PERICENTER": 37.4279,
    "MEAN_ANOMALY": 323.0063,
    "EPHEMERIS_TYPE": 0,
    "CLASSIFICATION_TYPE": "U",
    "NORAD_CAT_ID": 39417,
    "ELEMENT_SET_NO": 999,
    "REV_AT_EPOCH": 62563,
    "BSTAR": 0.00046032,
    "MEAN_MOTION_DOT": 5.305e-05,
    "MEAN_MOTION_DDOT": 0
  },
  {
    "OBJECT_NAME": "GOMX-1",
    "OBJECT_ID": "2013-066Q",
    "EPOCH": "2025-06-14T20:55:47.068320",
    "MEAN_MOTION": 14.67656713,
    "ECCENTRICITY": 0.0132488,
    "INCLINATION": 97.6827,
    "RA_OF_ASC_NODE": 24.2119,
    "ARG_OF_PERICENTER": 174.8609,
    "MEAN_ANOMALY": 185.3994,
    "EPHEMERIS_TYPE": 0,
    "CLASSIFICATION_TYPE": "U",
    "NORAD_CAT_ID": 39430,
    "ELEMENT_SET_NO": 999,
    "REV_AT_EPOCH": 61618,
    "BSTAR": 0.00031768,
    "MEAN_MOTION_DOT": 2.011e-05,
    "MEAN_MOTION_DDOT": 0
  },
  {
    "OBJECT_NAME": "CUBEBUG-2 (LO-74)",
    "OBJECT_ID": "2013-066AA",
    "EPOCH": "2025-06-14T12:18:40.197600",
    "MEAN_MOTION": 14.89961727,
    "ECCENTRICITY": 0.0062396,
    "INCLINATION": 97.85,
    "RA_OF_ASC_NODE": 110.0391,
    "ARG_OF_PERICENTER": 162.3641,
    "MEAN_ANOMALY": 197.9763,
    "EPHEMERIS_TYPE": 0,
    "CLASSIFICATION_TYPE": "U",
    "NORAD_CAT_ID": 39440,
    "ELEMENT_SET_NO": 999,
    "REV_AT_EPOCH": 62217,
    "BSTAR": 0.00034847,
    "MEAN_MOTION_DOT": 3.423e-05,
    "MEAN_MOTION_DDOT": 0
  },
  {
    "OBJECT_NAME": "FUNCUBE-1 (AO-73)",
    "OBJECT_ID": "2013-066AE",
    "EPOCH": "2025-06-14T08:13:01.949088",
    "MEAN_MOTION": 15.02405206,
    "ECCENTRICITY": 0.0042689,
    "INCLINATION": 97.784,
    "RA_OF_ASC_NODE": 127.2758,
    "ARG_OF_PERICENTER": 14.3225,
    "MEAN_ANOMALY": 345.9198,
    "EPHEMERIS_TYPE": 0,
    "CLASSIFICATION_TYPE": "U",
    "NORAD_CAT_ID": 39444,
    "ELEMENT_SET_NO": 999,
    "REV_AT_EPOCH": 62430,
    "BSTAR": 0.00058775,
    "MEAN_MOTION_DOT": 7.879e-05,
    "MEAN_MOTION_DDOT": 0
  },
  {
    "OBJECT_NAME": "UWE-3",
    "OBJECT_ID": "2013-066AG",
    "EPOCH": "2025-06-14T07:05:23.241696",
    "MEAN_MOTION": 14.92933716,
    "ECCENTRICITY": 0.0054894,
    "INCLINATION": 97.8249,
    "RA_OF_ASC_NODE": 116.1922,
    "ARG_OF_PERICENTER": 102.9675,
    "MEAN_ANOMALY": 257.7682,
    "EPHEMERIS_TYPE": 0,
    "CLASSIFICATION_TYPE": "U",
    "NORAD_CAT_ID": 39446,
    "ELEMENT_SET_NO": 999,
    "REV_AT_EPOCH": 62261,
    "BSTAR": 0.00039604,
    "MEAN_MOTION_DOT": 4.173e-05,
    "MEAN_MOTION_DDOT": 0
  },
  {
    "OBJECT_NAME": "UNISAT-6",
    "OBJECT_ID": "2014-033C",
    "EPOCH": "2025-06-14T11:10:21.652896",
    "MEAN_MOTION": 14.852455,
    "ECCENTRICITY": 0.0047428,
    "INCLINATION": 97.7432,
    "RA_OF_ASC_NODE": 321.5202,
    "ARG_OF_PERICENTER": 197.1116,
    "MEAN_ANOMALY": 162.8503,
    "EPHEMERIS_TYPE": 0,
    "CLASSIFICATION_TYPE": "U",
    "NORAD_CAT_ID": 40012,
    "ELEMENT_SET_NO": 999,
    "REV_AT_EPOCH": 59152,
    "BSTAR": 0.00037753,
    "MEAN_MOTION_DOT": 3.25e-05,
    "MEAN_MOTION_DDOT": 0
  },
  {
    "OBJECT_NAME": "DUCHIFAT-1",
    "OBJECT_ID": "2014-033M",
    "EPOCH": "2025-06-14T11:59:59.366688",
    "MEAN_MOTION": 15.28774314,
    "ECCENTRICITY": 0.0006674,
    "INCLINATION": 98.094,
    "RA_OF_ASC_NODE": 180.265,
    "ARG_OF_PERICENTER": 304.6994,
    "MEAN_ANOMALY": 55.3614,
    "EPHEMERIS_TYPE": 0,
    "CLASSIFICATION_TYPE": "U",
    "NORAD_CAT_ID": 40021,
    "ELEMENT_SET_NO": 999,
    "REV_AT_EPOCH": 59907,
    "BSTAR": 0.00061989,
    "MEAN_MOTION_DOT": 0.00017285,
    "MEAN_MOTION_DDOT": 0
  },
  {
    "OBJECT_NAME": "QB50P1",
    "OBJECT_ID": "2014-033R",
    "EPOCH": "2025-06-14T21:47:33.770400",
    "MEAN_MOTION": 15.1056931,
    "ECCENTRICITY": 0.0011466,
    "INCLINATION": 98.0827,
    "RA_OF_ASC_NODE": 148.7961,
    "ARG_OF_PERICENTER": 44.5231,
    "MEAN_ANOMALY": 315.6916,
    "EPHEMERIS_TYPE": 0,
    "CLASSIFICATION_TYPE": "U",
    "NORAD_CAT_ID": 40025,
    "ELEMENT_SET_NO": 999,
    "REV_AT_EPOCH": 59795,
    "BSTAR": 0.00048308,
    "MEAN_MOTION_DOT": 7.916e-05,
    "MEAN_MOTION_DDOT": 0
  },
  {
    "OBJECT_NAME": "LILACSAT-2",
    "OBJECT_ID": "2015-049K",
    "EPOCH": "2025-06-14T17:54:29.907936",
    "MEAN_MOTION": 15.39029586,
    "ECCENTRICITY": 0.0010717,
    "INCLINATION": 97.5048,
    "RA_OF_ASC_NODE": 186.2172,
    "ARG_OF_PERICENTER": 134.8893,
    "MEAN_ANOMALY": 225.3224,
    "EPHEMERIS_TYPE": 0,
    "CLASSIFICATION_TYPE": "U",
    "NORAD_CAT_ID": 40908,
    "ELEMENT_SET_NO": 999,
    "REV_AT_EPOCH": 53902,
    "BSTAR": 0.00028944,
    "MEAN_MOTION_DOT": 0.00011126,
    "MEAN_MOTION_DDOT": 0
  },
  {
    "OBJECT_NAME": "LAPAN-A2 (IO-86)",
    "OBJECT_ID": "2015-052B",
    "EPOCH": "2025-05-31T04:27:33.271200",
    "MEAN_MOTION": 14.7880593,
    "ECCENTRICITY": 0.0012733,
    "INCLINATION": 6.0006,
    "RA_OF_ASC_NODE": 24.0987,
    "ARG_OF_PERICENTER": 338.8432,
    "MEAN_ANOMALY": 21.1169,
    "EPHEMERIS_TYPE": 0,
    "CLASSIFICATION_TYPE": "U",
    "NORAD_CAT_ID": 40931,
    "ELEMENT_SET_NO": 999,
    "REV_AT_EPOCH": 52304,
    "BSTAR": 7.8118e-05,
    "MEAN_MOTION_DOT": 1.241e-05,
    "MEAN_MOTION_DDOT": 0
  },
  {
    "OBJECT_NAME": "FOX-1A (AO-85)",
    "OBJECT_ID": "2015-058D",
    "EPOCH": "2025-06-14T18:35:09.095712",
    "MEAN_MOTION": 14.88059776,
    "ECCENTRICITY": 0.016038,
    "INCLINATION": 64.7769,
    "RA_OF_ASC_NODE": 338.3472,
    "ARG_OF_PERICENTER": 193.8147,
    "MEAN_ANOMALY": 165.8553,
    "EPHEMERIS_TYPE": 0,
    "CLASSIFICATION_TYPE": "U",
    "NORAD_CAT_ID": 40967,
    "ELEMENT_SET_NO": 999,
    "REV_AT_EPOCH": 5884,
    "BSTAR": 0.00036927,
    "MEAN_MOTION_DOT": 4.145e-05,
    "MEAN_MOTION_DDOT": 0
  },
  {
    "OBJECT_NAME": "CAS-2T & KS-1Q",
    "OBJECT_ID": "2016-066G",
    "EPOCH": "2025-06-14T17:49:05.332512",
    "MEAN_MOTION": 14.43497422,
    "ECCENTRICITY": 0.0346603,
    "INCLINATION": 98.4196,
    "RA_OF_ASC_NODE": 240.1603,
    "ARG_OF_PERICENTER": 162.7141,
    "MEAN_ANOMALY": 198.6209,
    "EPHEMERIS_TYPE": 0,
    "CLASSIFICATION_TYPE": "U",
    "NORAD_CAT_ID": 41847,
    "ELEMENT_SET_NO": 999,
    "REV_AT_EPOCH": 45176,
    "BSTAR": 0.00029203,
    "MEAN_MOTION_DOT": 2.004e-05,
    "MEAN_MOTION_DDOT": 0
  },
  {
    "OBJECT_NAME": "ZHUHAI-1 02 (CAS-4B)",
    "OBJECT_ID": "2017-034B",
    "EPOCH": "2025-06-14T18:27:53.777952",
    "MEAN_MOTION": 15.64038545,
    "ECCENTRICITY": 0.0021319,
    "INCLINATION": 43.0073,
    "RA_OF_ASC_NODE": 290.9386,
    "ARG_OF_PERICENTER": 324.1353,
    "MEAN_ANOMALY": 35.808,
    "EPHEMERIS_TYPE": 0,
    "CLASSIFICATION_TYPE": "U",
    "NORAD_CAT_ID": 42759,
    "ELEMENT_SET_NO": 999,
    "REV_AT_EPOCH": 44341,
    "BSTAR": 0.00063535,
    "MEAN_MOTION_DOT": 0.00062551,
    "MEAN_MOTION_DDOT": 0
  },
  {
    "OBJECT_NAME": "ZHUHAI-1 01 (CAS-4A)",
    "OBJECT_ID": "2017-034D",
    "EPOCH": "2025-06-14T17:37:31.726272",
    "MEAN_MOTION": 15.65369558,
    "ECCENTRICITY": 0.0022535,
    "INCLINATION": 43.0112,
    "RA_OF_ASC_NODE": 288.2459,
    "ARG_OF_PERICENTER": 328.2768,
    "MEAN_ANOMALY": 31.6739,
    "EPHEMERIS_TYPE": 0,
    "CLASSIFICATION_TYPE": "U",
    "NORAD_CAT_ID": 42761,
    "ELEMENT_SET_NO": 999,
    "REV_AT_EPOCH": 44343,
    "BSTAR": 0.00068694,
    "MEAN_MOTION_DOT": 0.00071559,
    "MEAN_MOTION_DDOT": 0
  }
]