ZACUBE-1 (TSHEPISOSAT)  
1 39417U 13066B   25165.39989749  .00005305  00000+0  46032-3 0  9997
2 39417  97.7802 122.3871 0045024  37.4279 323.0063 14.96693756625635
GOMX-1                  
1 39430U 13066Q   25165.87207255  .00002011  00000+0  31768-3 0  9991
2 39430  97.6827  24.2119 0132488 174.8609 185.3994 14.67656713616187
CUBEBUG-2 (LO-74)       
1 39440U 13066AA  25165.51296525  .00003423  00000+0  34847-3 0  9990
2 39440  97.8500 110.0391 0062396 162.3641 197.9763 14.89961727622179
FUNCUBE-1 (AO-73)       
1 39444U 13066AE  25165.34238367  .00007879  00000+0  58775-3 0  9990
2 39444  97.7840 127.2758 0042689  14.3225 345.9198 15.02405206624308
UWE-3                   
1 39446U 13066AG  25165.29540789  .00004173  00000+0  39604-3 0  9994
2 39446  97.8249 116.1922 0054894 102.9675 257.7682 14.92933716622618
UNISAT-6                
1 40012U 14033C   25165.46552839  .00003250  00000+0  37753-3 0  9996
2 40012  97.7432 321.5202 0047428 197.1116 162.8503 14.85245500591528
DUCHIFAT-1              
1 40021U 14033M   25165.49999267  .00017285  00000+0  61989-3 0  9990
2 40021  98.0940 180.2650 0006674 304.6994  55.3614 15.28774314599075
QB50P1                  
1 40025U 14033R   25165.90802975  .00007916  00000+0  48308-3 0  9999
2 40025  98.0827 148.7961 0011466  44.5231 315.6916 15.10569310597957
LILACSAT-2              
1 40908U 15049K   25165.74617949  .00011126  00000+0  28944-3 0  9996
2 40908  97.5048 186.2172 0010717 134.8893 225.3224 15.39029586539022
LAPAN-A2 (IO-86)        
1 40931U 15052B   25151.18580175  .00001241  00000+0  78118-4 0  9995
2 40931   6.0006  24.0987 0012733 338.8432  21.1169 14.78805930523047
FOX-1A (AO-85)          
1 40967U 15058D   25165.77441083  .00004145  00000+0  36927-3 0  9991
2 40967  64.7769 338.3472 0160380 193.8147 165.8553 14.88059776 58841
CAS-2T & KS-1Q          
1 41847U 16066G   25165.74242283  .00002004  00000+0  29203-3 0  9998
2 41847  98.4196 240.1603 0346603 162.7141 198.6209 14.43497422451761
ZHUHAI-1 02 (CAS-4B)    
1 42759U 17034B   25165.76937243  .00062551  00000+0  63535-3 0  9995
2 42759  43.0073 290.9386 0021319 324.1353  35.8080 15.64038545443411
ZHUHAI-1 01 (CAS-4A)    
1 42761U 17034D   25165.73439498  .00071559  00000+0  68694-3 0  9993
2 42761  43.0112 288.2459 0022535 328.2768  31.6739 15.65369558443434
